0 COSMOS 1864
1 18160U 87057A   13282.42237740  .00000029  00000-0  14245-4 0  1351
2 18160 082.9369 006.8935 0032673 169.0518 240.3491 13.75473489298055
0 COSMOS 1864
1 18160U 87057A   13283.44330632  .00000037  00000-0  22273-4 0  1368
2 18160 082.9369 006.1358 0032744 166.2415 255.6480 13.75473487298191
0 COSMOS 1864
1 18160U 87057A   13286.20624014  .00000068  00000-0  54968-4 0  1387
2 18160 082.9367 004.0856 0032899 158.7138 256.6949 13.75473475298578
0 COSMOS 1864
1 18160U 87057A   13287.52259265  .00000071  00000-0  58049-4 0  1394
2 18160 082.9364 003.1089 0032988 155.0915 294.8315 13.75473348298755
0 COSMOS 1864
1 18160U 87057A   13288.83818505  .00000076  00000-0  62933-4 0  1401
2 18160 082.9361 002.1328 0033021 151.5669 329.1078 13.75473592298932
0 COSMOS 1864
1 18160U 87057A   13290.19962044  .00000070  00000-0  56196-4 0  1410
2 18160 082.9358 001.1226 0033079 147.8821 230.4180 13.75473826299125
0 COSMOS 1864
1 18160U 87057A   13291.52383828  .00000064  00000-0  50622-4 0  1427
2 18160 082.9356 000.1398 0033088 144.3504 307.3899 13.75474018299307
0 COSMOS 1864
1 18160U 87057A   13292.54217828  .00000047  00000-0  33027-4 0  1438
2 18160 082.9355 359.3840 0033122 141.5828 309.8347 13.75474093299447
0 COSMOS 1864
1 18160U 87057A   13293.85735042  .00000049  00000-0  35088-4 0  1448
2 18160 082.9353 358.4079 0033208 138.0174 342.0755 13.75474398299629
0 COSMOS 1864
1 18160U 87057A   13295.15389478  .00000050  00000-0  36195-4 0  1454
2 18160 082.9353 357.4455 0033249 134.5324 282.0496 13.75474586299803
0 COSMOS 1864
1 18160U 87057A   13296.17735213  .00000048  00000-0  33576-4 0  1467
2 18160 082.9353 356.6859 0033264 131.8029 309.7841 13.75474658299947
